start=new Date('2022-06-07T00:00:00.000Z').valueOf();
sats=[{"OBJECT_NAME":"STARLINK-3934","CLASSIFICATION_TYPE":"U","BSTAR":"0.00038675000000","COUNTRY_CODE":"US","REF_FRAME":"TEME","MEAN_ANOMALY":"52.3658","EPHEMERIS_TYPE":"0","GP_ID":"205500949","TIME_SYSTEM":"UTC","RCS_SIZE":"MEDIUM","FILE":"3484212","TLE_LINE1":"1 52675U 22053V   22157.91667824  .00053932  00000-0  38675-3 0  9991","MEAN_MOTION":"15.73165774","INCLINATION":"53.2151","APOAPSIS":"351.533","TLE_LINE2":"2 52675  53.2151 201.4028 0002490  27.2450  52.3658 15.73165774  3385","PERIOD":"91.535","MEAN_MOTION_DDOT":"0.0000000000000","SITE":"AFETR","MEAN_ELEMENT_THEORY":"SGP4","CENTER_NAME":"EARTH","SEMIMAJOR_AXIS":"6727.993","LAUNCH_DATE":"2022-05-18","EPOCH":"2022-06-06T22:00:00.999936","OBJECT_ID":"2022-053V","NORAD_CAT_ID":"52675","PERIAPSIS":"348.182","MEAN_MOTION_DOT":"0.00053932","ELEMENT_SET_NO":"999","REV_AT_EPOCH":"338","DECAY_DATE":null,"ARG_OF_PERICENTER":"27.2450","OBJECT_TYPE":"PAYLOAD","ECCENTRICITY":"0.00024900","RA_OF_ASC_NODE":"201.4028"},{"MEAN_ELEMENT_THEORY":"SGP4","SITE":"AFETR","MEAN_MOTION_DOT":"-0.00722674","PERIAPSIS":"359.324","NORAD_CAT_ID":"52676","OBJECT_ID":"2022-053W","EPOCH":"2022-06-06T22:00:00.999936","LAUNCH_DATE":"2022-05-18","SEMIMAJOR_AXIS":"6738.202","CENTER_NAME":"EARTH","ARG_OF_PERICENTER":"323.1054","DECAY_DATE":null,"REV_AT_EPOCH":"338","ELEMENT_SET_NO":"999","RA_OF_ASC_NODE":"201.4624","ECCENTRICITY":"0.00011020","OBJECT_TYPE":"PAYLOAD","CLASSIFICATION_TYPE":"U","BSTAR":"-0.00653010000000","OBJECT_NAME":"STARLINK-4006","GP_ID":"205500606","EPHEMERIS_TYPE":"0","MEAN_ANOMALY":"99.0445","COUNTRY_CODE":"US","REF_FRAME":"TEME","APOAPSIS":"360.809","MEAN_MOTION":"15.69591923","TLE_LINE1":"1 52676U 22053W   22157.91667824 -.00722674  00000-0 -65301-2 0  9995","INCLINATION":"53.2176","RCS_SIZE":"LARGE","FILE":"3484182","TIME_SYSTEM":"UTC","MEAN_MOTION_DDOT":"0.0000000000000","PERIOD":"91.744","TLE_LINE2":"2 52676  53.2176 201.4624 0001102 323.1054  99.0445 15.69591923  3388"},{"GP_ID":"205500208","MEAN_ANOMALY":"57.0503","EPHEMERIS_TYPE":"0","COUNTRY_CODE":"US","REF_FRAME":"TEME","BSTAR":"0.00039623000000","CLASSIFICATION_TYPE":"U","OBJECT_NAME":"STARLINK-4028","MEAN_MOTION_DDOT":"0.0000000000000","PERIOD":"91.534","TLE_LINE2":"2 52677  53.2149 201.4006 0002365  23.8068  57.0503 15.73179005  3381","APOAPSIS":"351.411","MEAN_MOTION":"15.73179005","TLE_LINE1":"1 52677U 22053X   22157.91667824  .00055309  00000-0  39623-3 0  9997","INCLINATION":"53.2149","RCS_SIZE":"LARGE","FILE":"3484182","TIME_SYSTEM":"UTC","PERIAPSIS":"348.229","MEAN_MOTION_DOT":"0.00055309","NORAD_CAT_ID":"52677","OBJECT_ID":"2022-053X","EPOCH":"2022-06-06T22:00:00.999936","LAUNCH_DATE":"2022-05-18","SEMIMAJOR_AXIS":"6727.955","CENTER_NAME":"EARTH","MEAN_ELEMENT_THEORY":"SGP4","SITE":"AFETR","RA_OF_ASC_NODE":"201.4006","ECCENTRICITY":"0.00023650","OBJECT_TYPE":"PAYLOAD","ARG_OF_PERICENTER":"23.8068","DECAY_DATE":null,"REV_AT_EPOCH":"338","ELEMENT_SET_NO":"999"},{"COUNTRY_CODE":"US","REF_FRAME":"TEME","MEAN_ANOMALY":"56.8226","EPHEMERIS_TYPE":"0","GP_ID":"205529153","OBJECT_NAME":"STARLINK-4074","CLASSIFICATION_TYPE":"U","BSTAR":"0.00038427000000","TLE_LINE2":"2 52678  53.2151 201.4047 0002584  22.2088  56.8226 15.73175342  1307","PERIOD":"91.535","MEAN_MOTION_DDOT":"0.0000000000000","TIME_SYSTEM":"UTC","FILE":"3484350","RCS_SIZE":"LARGE","TLE_LINE1":"1 52678U 22053Y   22157.91667824  .00053602  00000-0  38427-3 0  9993","MEAN_MOTION":"15.73175342","INCLINATION":"53.2151","APOAPSIS":"351.569","CENTER_NAME":"EARTH","SEMIMAJOR_AXIS":"6727.965","LAUNCH_DATE":"2022-05-18","EPOCH":"2022-06-06T22:00:00.999936","OBJECT_ID":"2022-053Y","NORAD_CAT_ID":"52678","MEAN_MOTION_DOT":"0.00053602","PERIAPSIS":"348.092","SITE":"AFETR","MEAN_ELEMENT_THEORY":"SGP4","OBJECT_TYPE":"PAYLOAD","ECCENTRICITY":"0.00025840","RA_OF_ASC_NODE":"201.4047","ELEMENT_SET_NO":"999","REV_AT_EPOCH":"130","DECAY_DATE":null,"ARG_OF_PERICENTER":"22.2088"},{"CLASSIFICATION_TYPE":"U","BSTAR":"0.00040714000000","OBJECT_NAME":"STARLINK-4031","EPHEMERIS_TYPE":"0","MEAN_ANOMALY":"62.6242","GP_ID":"205529318","REF_FRAME":"TEME","COUNTRY_CODE":"US","FILE":"3484350","RCS_SIZE":"LARGE","TIME_SYSTEM":"UTC","APOAPSIS":"351.471","TLE_LINE1":"1 52679U 22053Z   22157.91667824  .00056809  00000-0  40714-3 0  9998","MEAN_MOTION":"15.73158565","INCLINATION":"53.2164","PERIOD":"91.536","MEAN_MOTION_DDOT":"0.0000000000000","TLE_LINE2":"2 52679  53.2164 201.3966 0002367  20.0014  62.6242 15.73158565  1306","MEAN_ELEMENT_THEORY":"SGP4","SITE":"AFETR","OBJECT_ID":"2022-053Z","EPOCH":"2022-06-06T22:00:00.999936","MEAN_MOTION_DOT":"0.00056809","PERIAPSIS":"348.286","NORAD_CAT_ID":"52679","SEMIMAJOR_AXIS":"6728.013","CENTER_NAME":"EARTH","LAUNCH_DATE":"2022-05-18","DECAY_DATE":null,"ARG_OF_PERICENTER":"20.0014","REV_AT_EPOCH":"130","ELEMENT_SET_NO":"999","RA_OF_ASC_NODE":"201.3966","ECCENTRICITY":"0.00023670","OBJECT_TYPE":"PAYLOAD"},{"TLE_LINE2":"2 52680  53.2147 201.4019 0002533  30.8344  49.3955 15.73175158  3389","PERIOD":"91.535","MEAN_MOTION_DDOT":"0.0000000000000","TIME_SYSTEM":"UTC","FILE":"3484183","RCS_SIZE":"LARGE","MEAN_MOTION":"15.73175158","TLE_LINE1":"1 52680U 22053AA  22157.91667824  .00055703  00000-0  39906-3 0  9993","INCLINATION":"53.2147","APOAPSIS":"351.535","COUNTRY_CODE":"US","REF_FRAME":"TEME","MEAN_ANOMALY":"49.3955","EPHEMERIS_TYPE":"0","GP_ID":"205500620","OBJECT_NAME":"STARLINK-3774","CLASSIFICATION_TYPE":"U","BSTAR":"0.00039906000000","OBJECT_TYPE":"PAYLOAD","ECCENTRICITY":"0.00025330","RA_OF_ASC_NODE":"201.4019","ELEMENT_SET_NO":"999","REV_AT_EPOCH":"338","DECAY_DATE":null,"ARG_OF_PERICENTER":"30.8344","SEMIMAJOR_AXIS":"6727.966","CENTER_NAME":"EARTH","LAUNCH_DATE":"2022-05-18","EPOCH":"2022-06-06T22:00:00.999936","OBJECT_ID":"2022-053AA","NORAD_CAT_ID":"52680","PERIAPSIS":"348.127","MEAN_MOTION_DOT":"0.00055703","SITE":"AFETR","MEAN_ELEMENT_THEORY":"SGP4"},{"OBJECT_NAME":"STARLINK-4068","CLASSIFICATION_TYPE":"U","BSTAR":"0.00040451000000","COUNTRY_CODE":"US","REF_FRAME":"TEME","GP_ID":"205500618","EPHEMERIS_TYPE":"0","MEAN_ANOMALY":"66.7007","APOAPSIS":"351.722","INCLINATION":"53.2148","TLE_LINE1":"1 52681U 22053AB  22157.91667824  .00056483  00000-0  40451-3 0  9997","MEAN_MOTION":"15.73176805","FILE":"3484183","RCS_SIZE":"LARGE","TIME_SYSTEM":"UTC","TLE_LINE2":"2 52681  53.2148 201.3947 0002818  16.4768  66.7007 15.73176805  3387","MEAN_MOTION_DDOT":"0.0000000000000","PERIOD":"91.535","SITE":"AFETR","MEAN_ELEMENT_THEORY":"SGP4","LAUNCH_DATE":"2022-05-18","CENTER_NAME":"EARTH","SEMIMAJOR_AXIS":"6727.961","MEAN_MOTION_DOT":"0.00056483","PERIAPSIS":"347.930","NORAD_CAT_ID":"52681","OBJECT_ID":"2022-053AB","EPOCH":"2022-06-06T22:00:00.999936","REV_AT_EPOCH":"338","ELEMENT_SET_NO":"999","ARG_OF_PERICENTER":"16.4768","DECAY_DATE":null,"OBJECT_TYPE":"PAYLOAD","RA_OF_ASC_NODE":"201.3947","ECCENTRICITY":"0.00028180"},{"TLE_LINE2":"2 52682  53.2150 201.3996 0002392  21.1242  60.2918 15.73190479  1305","MEAN_MOTION_DDOT":"0.0000000000000","PERIOD":"91.534","APOAPSIS":"351.397","INCLINATION":"53.2150","TLE_LINE1":"1 52682U 22053AC  22157.91667824  .00056669  00000-0  40560-3 0  9995","MEAN_MOTION":"15.73190479","FILE":"3484350","RCS_SIZE":"LARGE","TIME_SYSTEM":"UTC","REF_FRAME":"TEME","COUNTRY_CODE":"US","GP_ID":"205529489","MEAN_ANOMALY":"60.2918","EPHEMERIS_TYPE":"0","OBJECT_NAME":"STARLINK-4017","CLASSIFICATION_TYPE":"U","BSTAR":"0.00040560000000","OBJECT_TYPE":"PAYLOAD","RA_OF_ASC_NODE":"201.3996","ECCENTRICITY":"0.00023920","REV_AT_EPOCH":"130","ELEMENT_SET_NO":"999","ARG_OF_PERICENTER":"21.1242","DECAY_DATE":null,"LAUNCH_DATE":"2022-05-18","SEMIMAJOR_AXIS":"6727.922","CENTER_NAME":"EARTH","MEAN_MOTION_DOT":"0.00056669","PERIAPSIS":"348.178","NORAD_CAT_ID":"52682","OBJECT_ID":"2022-053AC","EPOCH":"2022-06-06T22:00:00.999936","SITE":"AFETR","MEAN_ELEMENT_THEORY":"SGP4"},{"EPOCH":"2022-06-06T22:00:00.999936","OBJECT_ID":"2022-053AD","NORAD_CAT_ID":"52683","PERIAPSIS":"348.247","MEAN_MOTION_DOT":"0.00035917","SEMIMAJOR_AXIS":"6727.976","CENTER_NAME":"EARTH","LAUNCH_DATE":"2022-05-18","MEAN_ELEMENT_THEORY":"SGP4","SITE":"AFETR","ECCENTRICITY":"0.00023690","RA_OF_ASC_NODE":"201.3924","OBJECT_TYPE":"PAYLOAD","DECAY_DATE":null,"ARG_OF_PERICENTER":"19.1597","ELEMENT_SET_NO":"999","REV_AT_EPOCH":"338","EPHEMERIS_TYPE":"0","MEAN_ANOMALY":"65.2848","GP_ID":"205500615","REF_FRAME":"TEME","COUNTRY_CODE":"US","CLASSIFICATION_TYPE":"U","BSTAR":"0.00025953000000","OBJECT_NAME":"STARLINK-4039","PERIOD":"91.535","MEAN_MOTION_DDOT":"0.0000000000000","TLE_LINE2":"2 52683  53.2147 201.3924 0002369  19.1597  65.2848 15.73171712  3383","TIME_SYSTEM":"UTC","RCS_SIZE":"LARGE","FILE":"3484183","TLE_LINE1":"1 52683U 22053AD  22157.91667824  .00035917  00000-0  25953-3 0  9998","INCLINATION":"53.2147","MEAN_MOTION":"15.73171712","APOAPSIS":"351.435"},{"MEAN_ELEMENT_THEORY":"SGP4","SITE":"AFETR","NORAD_CAT_ID":"52684","MEAN_MOTION_DOT":"0.00042063","PERIAPSIS":"348.090","EPOCH":"2022-06-06T22:00:00.999936","OBJECT_ID":"2022-053AE","LAUNCH_DATE":"2022-05-18","CENTER_NAME":"EARTH","SEMIMAJOR_AXIS":"6727.928","ARG_OF_PERICENTER":"24.6401","DECAY_DATE":null,"ELEMENT_SET_NO":"999","REV_AT_EPOCH":"130","ECCENTRICITY":"0.00025310","RA_OF_ASC_NODE":"201.3978","OBJECT_TYPE":"PAYLOAD","CLASSIFICATION_TYPE":"U","BSTAR":"0.00030274000000","OBJECT_NAME":"STARLINK-4014","GP_ID":"205529418","MEAN_ANOMALY":"57.3790","EPHEMERIS_TYPE":"0","COUNTRY_CODE":"US","REF_FRAME":"TEME","TLE_LINE1":"1 52684U 22053AE  22157.91667824  .00042063  00000-0  30274-3 0  9991","INCLINATION":"53.2148","MEAN_MOTION":"15.73188609","APOAPSIS":"351.495","TIME_SYSTEM":"UTC","RCS_SIZE":"LARGE","FILE":"3484350","MEAN_MOTION_DDOT":"0.0000000000000","PERIOD":"91.534","TLE_LINE2":"2 52684  53.2148 201.3978 0002531  24.6401  57.3790 15.73188609  1301"}];
